<?xml version="1.0" encoding="UTF-8"?>
<ndm xmlns:xsi="http://www.w3.org/2001/XMLSchema-instance" xsi:noNamespaceSchemaLocation="https://sanaregistry.org/r/ndmxml_unqualified/ndmxml-2.0.0-master-2.0.xsd">
<omm id="CCSDS_OMM_VERS" version="2.0">
<header><CREATION_DATE/><ORIGINATOR/></header><body><segment><metadata><OBJECT_NAME>ORBCOMM FM24</OBJECT_NAME><OBJECT_ID>1998-053D</OBJECT_ID><CENTER_NAME>EARTH</CENTER_NAME><REF_FRAME>TEME</REF_FRAME><TIME_SYSTEM>UTC</TIME_SYSTEM><MEAN_ELEMENT_THEORY>SGP4</MEAN_ELEMENT_THEORY></metadata><data><meanElements><EPOCH>2024-09-16T07:54:29.681280</EPOCH><MEAN_MOTION>14.36409218</MEAN_MOTION><ECCENTRICITY>.0001004</ECCENTRICITY><INCLINATION>45.0075</INCLINATION><RA_OF_ASC_NODE>126.1251</RA_OF_ASC_NODE><ARG_OF_PERICENTER>305.3065</ARG_OF_PERICENTER><MEAN_ANOMALY>54.7689</MEAN_ANOMALY></meanElements><tleParameters><EPHEMERIS_TYPE>0</EPHEMERIS_TYPE><CLASSIFICATION_TYPE>U</CLASSIFICATION_TYPE><NORAD_CAT_ID>25478</NORAD_CAT_ID><ELEMENT_SET_NO>999</ELEMENT_SET_NO><REV_AT_EPOCH>35804</REV_AT_EPOCH><BSTAR>.12909E-2</BSTAR><MEAN_MOTION_DOT>.3676E-4</MEAN_MOTION_DOT><MEAN_MOTION_DDOT>0</MEAN_MOTION_DDOT></tleParameters></data></segment></body></omm>
<omm id="CCSDS_OMM_VERS" version="2.0">
<header><CREATION_DATE/><ORIGINATOR/></header><body><segment><metadata><OBJECT_NAME>ORBCOMM FM25</OBJECT_NAME><OBJECT_ID>1998-053E</OBJECT_ID><CENTER_NAME>EARTH</CENTER_NAME><REF_FRAME>TEME</REF_FRAME><TIME_SYSTEM>UTC</TIME_SYSTEM><MEAN_ELEMENT_THEORY>SGP4</MEAN_ELEMENT_THEORY></metadata><data><meanElements><EPOCH>2024-09-16T13:48:48.524832</EPOCH><MEAN_MOTION>14.36391937</MEAN_MOTION><ECCENTRICITY>.0003453</ECCENTRICITY><INCLINATION>45.0063</INCLINATION><RA_OF_ASC_NODE>123.2133</RA_OF_ASC_NODE><ARG_OF_PERICENTER>318.2183</ARG_OF_PERICENTER><MEAN_ANOMALY>41.8401</MEAN_ANOMALY></meanElements><tleParameters><EPHEMERIS_TYPE>0</EPHEMERIS_TYPE><CLASSIFICATION_TYPE>U</CLASSIFICATION_TYPE><NORAD_CAT_ID>25479</NORAD_CAT_ID><ELEMENT_SET_NO>999</ELEMENT_SET_NO><REV_AT_EPOCH>35837</REV_AT_EPOCH><BSTAR>.11507E-2</BSTAR><MEAN_MOTION_DOT>.326E-4</MEAN_MOTION_DOT><MEAN_MOTION_DDOT>0</MEAN_MOTION_DDOT></tleParameters></data></segment></body></omm>
<omm id="CCSDS_OMM_VERS" version="2.0">
<header><CREATION_DATE/><ORIGINATOR/></header><body><segment><metadata><OBJECT_NAME>ORBCOMM FM26</OBJECT_NAME><OBJECT_ID>1998-053F</OBJECT_ID><CENTER_NAME>EARTH</CENTER_NAME><REF_FRAME>TEME</REF_FRAME><TIME_SYSTEM>UTC</TIME_SYSTEM><MEAN_ELEMENT_THEORY>SGP4</MEAN_ELEMENT_THEORY></metadata><data><meanElements><EPOCH>2024-09-16T15:16:26.821056</EPOCH><MEAN_MOTION>14.35714723</MEAN_MOTION><ECCENTRICITY>.0005489</ECCENTRICITY><INCLINATION>45.0061</INCLINATION><RA_OF_ASC_NODE>117.6365</RA_OF_ASC_NODE><ARG_OF_PERICENTER>339.3424</ARG_OF_PERICENTER><MEAN_ANOMALY>20.7201</MEAN_ANOMALY></meanElements><tleParameters><EPHEMERIS_TYPE>0</EPHEMERIS_TYPE><CLASSIFICATION_TYPE>U</CLASSIFICATION_TYPE><NORAD_CAT_ID>25480</NORAD_CAT_ID><ELEMENT_SET_NO>999</ELEMENT_SET_NO><REV_AT_EPOCH>35831</REV_AT_EPOCH><BSTAR>.99789E-3</BSTAR><MEAN_MOTION_DOT>.2769E-4</MEAN_MOTION_DOT><MEAN_MOTION_DDOT>0</MEAN_MOTION_DDOT></tleParameters></data></segment></body></omm>
<omm id="CCSDS_OMM_VERS" version="2.0">
<header><CREATION_DATE/><ORIGINATOR/></header><body><segment><metadata><OBJECT_NAME>ORBCOMM FM27</OBJECT_NAME><OBJECT_ID>1998-053G</OBJECT_ID><CENTER_NAME>EARTH</CENTER_NAME><REF_FRAME>TEME</REF_FRAME><TIME_SYSTEM>UTC</TIME_SYSTEM><MEAN_ELEMENT_THEORY>SGP4</MEAN_ELEMENT_THEORY></metadata><data><meanElements><EPOCH>2024-09-16T15:13:26.230368</EPOCH><MEAN_MOTION>14.36387351</MEAN_MOTION><ECCENTRICITY>.0000597</ECCENTRICITY><INCLINATION>45.0047</INCLINATION><RA_OF_ASC_NODE>123.1939</RA_OF_ASC_NODE><ARG_OF_PERICENTER>97.6967</ARG_OF_PERICENTER><MEAN_ANOMALY>262.3949</MEAN_ANOMALY></meanElements><tleParameters><EPHEMERIS_TYPE>0</EPHEMERIS_TYPE><CLASSIFICATION_TYPE>U</CLASSIFICATION_TYPE><NORAD_CAT_ID>25481</NORAD_CAT_ID><ELEMENT_SET_NO>999</ELEMENT_SET_NO><REV_AT_EPOCH>35831</REV_AT_EPOCH><BSTAR>.11464E-2</BSTAR><MEAN_MOTION_DOT>.3247E-4</MEAN_MOTION_DOT><MEAN_MOTION_DDOT>0</MEAN_MOTION_DDOT></tleParameters></data></segment></body></omm>
<omm id="CCSDS_OMM_VERS" version="2.0">
<header><CREATION_DATE/><ORIGINATOR/></header><body><segment><metadata><OBJECT_NAME>ORBCOMM FM28</OBJECT_NAME><OBJECT_ID>1998-053H</OBJECT_ID><CENTER_NAME>EARTH</CENTER_NAME><REF_FRAME>TEME</REF_FRAME><TIME_SYSTEM>UTC</TIME_SYSTEM><MEAN_ELEMENT_THEORY>SGP4</MEAN_ELEMENT_THEORY></metadata><data><meanElements><EPOCH>2024-09-16T12:20:36.000384</EPOCH><MEAN_MOTION>14.36754395</MEAN_MOTION><ECCENTRICITY>.000273</ECCENTRICITY><INCLINATION>45.0054</INCLINATION><RA_OF_ASC_NODE>61.8194</RA_OF_ASC_NODE><ARG_OF_PERICENTER>4.9676</ARG_OF_PERICENTER><MEAN_ANOMALY>355.1198</MEAN_ANOMALY></meanElements><tleParameters><EPHEMERIS_TYPE>0</EPHEMERIS_TYPE><CLASSIFICATION_TYPE>U</CLASSIFICATION_TYPE><NORAD_CAT_ID>25482</NORAD_CAT_ID><ELEMENT_SET_NO>999</ELEMENT_SET_NO><REV_AT_EPOCH>35897</REV_AT_EPOCH><BSTAR>.11569E-2</BSTAR><MEAN_MOTION_DOT>.3304E-4</MEAN_MOTION_DOT><MEAN_MOTION_DDOT>0</MEAN_MOTION_DDOT></tleParameters></data></segment></body></omm>
<omm id="CCSDS_OMM_VERS" version="2.0">
<header><CREATION_DATE/><ORIGINATOR/></header><body><segment><metadata><OBJECT_NAME>ORBCOMM FM30</OBJECT_NAME><OBJECT_ID>1999-065A</OBJECT_ID><CENTER_NAME>EARTH</CENTER_NAME><REF_FRAME>TEME</REF_FRAME><TIME_SYSTEM>UTC</TIME_SYSTEM><MEAN_ELEMENT_THEORY>SGP4</MEAN_ELEMENT_THEORY></metadata><data><meanElements><EPOCH>2024-09-16T09:03:30.610368</EPOCH><MEAN_MOTION>14.35860301</MEAN_MOTION><ECCENTRICITY>.0003909</ECCENTRICITY><INCLINATION>45.0316</INCLINATION><RA_OF_ASC_NODE>304.5174</RA_OF_ASC_NODE><ARG_OF_PERICENTER>69.3997</ARG_OF_PERICENTER><MEAN_ANOMALY>290.7270</MEAN_ANOMALY></meanElements><tleParameters><EPHEMERIS_TYPE>0</EPHEMERIS_TYPE><CLASSIFICATION_TYPE>U</CLASSIFICATION_TYPE><NORAD_CAT_ID>25980</NORAD_CAT_ID><ELEMENT_SET_NO>999</ELEMENT_SET_NO><REV_AT_EPOCH>29507</REV_AT_EPOCH><BSTAR>.11104E-2</BSTAR><MEAN_MOTION_DOT>.3106E-4</MEAN_MOTION_DOT><MEAN_MOTION_DDOT>0</MEAN_MOTION_DDOT></tleParameters></data></segment></body></omm>
<omm id="CCSDS_OMM_VERS" version="2.0">
<header><CREATION_DATE/><ORIGINATOR/></header><body><segment><metadata><OBJECT_NAME>ORBCOMM FM31</OBJECT_NAME><OBJECT_ID>1999-065B</OBJECT_ID><CENTER_NAME>EARTH</CENTER_NAME><REF_FRAME>TEME</REF_FRAME><TIME_SYSTEM>UTC</TIME_SYSTEM><MEAN_ELEMENT_THEORY>SGP4</MEAN_ELEMENT_THEORY></metadata><data><meanElements><EPOCH>2024-09-16T11:35:22.466688</EPOCH><MEAN_MOTION>14.35841443</MEAN_MOTION><ECCENTRICITY>.0001236</ECCENTRICITY><INCLINATION>45.0226</INCLINATION><RA_OF_ASC_NODE>297.6283</RA_OF_ASC_NODE><ARG_OF_PERICENTER>120.8909</ARG_OF_PERICENTER><MEAN_ANOMALY>239.2060</MEAN_ANOMALY></meanElements><tleParameters><EPHEMERIS_TYPE>0</EPHEMERIS_TYPE><CLASSIFICATION_TYPE>U</CLASSIFICATION_TYPE><NORAD_CAT_ID>25981</NORAD_CAT_ID><ELEMENT_SET_NO>999</ELEMENT_SET_NO><REV_AT_EPOCH>29464</REV_AT_EPOCH><BSTAR>.95859E-3</BSTAR><MEAN_MOTION_DOT>.2661E-4</MEAN_MOTION_DOT><MEAN_MOTION_DDOT>0</MEAN_MOTION_DDOT></tleParameters></data></segment></body></omm>
<omm id="CCSDS_OMM_VERS" version="2.0">
<header><CREATION_DATE/><ORIGINATOR/></header><body><segment><metadata><OBJECT_NAME>ORBCOMM FM32</OBJECT_NAME><OBJECT_ID>1999-065C</OBJECT_ID><CENTER_NAME>EARTH</CENTER_NAME><REF_FRAME>TEME</REF_FRAME><TIME_SYSTEM>UTC</TIME_SYSTEM><MEAN_ELEMENT_THEORY>SGP4</MEAN_ELEMENT_THEORY></metadata><data><meanElements><EPOCH>2024-09-16T09:57:02.404224</EPOCH><MEAN_MOTION>14.34858474</MEAN_MOTION><ECCENTRICITY>.0003453</ECCENTRICITY><INCLINATION>45.0161</INCLINATION><RA_OF_ASC_NODE>312.6629</RA_OF_ASC_NODE><ARG_OF_PERICENTER>114.4487</ARG_OF_PERICENTER><MEAN_ANOMALY>245.6721</MEAN_ANOMALY></meanElements><tleParameters><EPHEMERIS_TYPE>0</EPHEMERIS_TYPE><CLASSIFICATION_TYPE>U</CLASSIFICATION_TYPE><NORAD_CAT_ID>25982</NORAD_CAT_ID><ELEMENT_SET_NO>999</ELEMENT_SET_NO><REV_AT_EPOCH>29525</REV_AT_EPOCH><BSTAR>.12349E-2</BSTAR><MEAN_MOTION_DOT>.3399E-4</MEAN_MOTION_DOT><MEAN_MOTION_DDOT>0</MEAN_MOTION_DDOT></tleParameters></data></segment></body></omm>

</ndm>
