ORBCOMM FM24            
1 25478U 98053D   24260.32951020  .00003676  00000+0  12909-2 0  9991
2 25478  45.0075 126.1251 0001004 305.3065  54.7689 14.36409218358041
ORBCOMM FM25            
1 25479U 98053E   24260.57556163  .00003260  00000+0  11507-2 0  9990
2 25479  45.0063 123.2133 0003453 318.2183  41.8401 14.36391937358373
ORBCOMM FM26            
1 25480U 98053F   24260.63642154  .00002769  00000+0  99789-3 0  9997
2 25480  45.0061 117.6365 0005489 339.3424  20.7201 14.35714723358319
ORBCOMM FM27            
1 25481U 98053G   24260.63433137  .00003247  00000+0  11464-2 0  9992
2 25481  45.0047 123.1939 0000597  97.6967 262.3949 14.36387351358311
ORBCOMM FM28            
1 25482U 98053H   24260.51430556  .00003304  00000+0  11569-2 0  9992
2 25482  45.0054  61.8194 0002730   4.9676 355.1198 14.36754395358975
ORBCOMM FM30            
1 25980U 99065A   24260.37743762  .00003106  00000+0  11104-2 0  9994
2 25980  45.0316 304.5174 0003909  69.3997 290.7270 14.35860301295074
ORBCOMM FM31            
1 25981U 99065B   24260.48289892  .00002661  00000+0  95859-3 0  9991
2 25981  45.0226 297.6283 0001236 120.8909 239.2060 14.35841443294648
ORBCOMM FM32            
1 25982U 99065C   24260.41461116  .00003399  00000+0  12349-2 0  9997
2 25982  45.0161 312.6629 0003453 114.4487 245.6721 14.34858474295256
